[{"OBJECT_NAME":"STARLINK-30212","OBJECT_ID":"2023-113M","EPOCH":"2026-03-09T22:00:01.999584","MEAN_MOTION":15.26693473,"ECCENTRICITY":0.0001577,"INCLINATION":43.0002,"RA_OF_ASC_NODE":15.1344,"ARG_OF_PERICENTER":266.5916,"MEAN_ANOMALY":166.5187,"EPHEMERIS_TYPE":0,"CLASSIFICATION_TYPE":"U","NORAD_CAT_ID":57506,"ELEMENT_SET_NO":999,"REV_AT_EPOCH":578,"BSTAR":0.0014601624,"MEAN_MOTION_DOT":0.0003906,"MEAN_MOTION_DDOT":0},{"OBJECT_NAME":"FLOCK 4G-2","OBJECT_ID":"2025-009BE","EPOCH":"2026-03-09T15:53:23.273952","MEAN_MOTION":15.2767526,"ECCENTRICITY":0.00031811,"INCLINATION":97.4044,"RA_OF_ASC_NODE":151.2221,"ARG_OF_PERICENTER":329.2677,"MEAN_ANOMALY":30.8376,"EPHEMERIS_TYPE":0,"CLASSIFICATION_TYPE":"U","NORAD_CAT_ID":62661,"ELEMENT_SET_NO":999,"REV_AT_EPOCH":12132,"BSTAR":0.00051068481,"MEAN_MOTION_DOT":0.00013752,"MEAN_MOTION_DDOT":0}]
